[{"OBJECT_NAME":"HST","OBJECT_ID":"1990-037B","EPOCH":"2026-03-09T03:50:04.164288","MEAN_MOTION":15.29473555,"ECCENTRICITY":0.00018372,"INCLINATION":28.4717,"RA_OF_ASC_NODE":43.6133,"ARG_OF_PERICENTER":120.9992,"MEAN_ANOMALY":239.0785,"EPHEMERIS_TYPE":0,"CLASSIFICATION_TYPE":"U","NORAD_CAT_ID":20580,"ELEMENT_SET_NO":999,"REV_AT_EPOCH":77323,"BSTAR":0.0003002261,"MEAN_MOTION_DOT":9.063e-5,"MEAN_MOTION_DDOT":0},{"OBJECT_NAME":"STARLINK-30902","OBJECT_ID":"2023-180V","EPOCH":"2026-03-08T08:42:56.560896","MEAN_MOTION":15.27248303,"ECCENTRICITY":0.00016664,"INCLINATION":43.0021,"RA_OF_ASC_NODE":59.988,"ARG_OF_PERICENTER":292.4391,"MEAN_ANOMALY":67.6284,"EPHEMERIS_TYPE":0,"CLASSIFICATION_TYPE":"U","NORAD_CAT_ID":58421,"ELEMENT_SET_NO":999,"REV_AT_EPOCH":12731,"BSTAR":0.0021800837,"MEAN_MOTION_DOT":0.00059609,"MEAN_MOTION_DDOT":0}]
